CCSDS_OMM_VERS = 2.0
CREATION_DATE  = 
ORIGINATOR     = 

OBJECT_NAME    = STARLINK-36624
OBJECT_ID      = 2026-020V
CENTER_NAME    = EARTH
REF_FRAME      = TEME
TIME_SYSTEM    = UTC
MEAN_ELEMENT_THEORY = SGP/SGP4

EPOCH          = 2026-02-21T20:00:01.999008
MEAN_MOTION    = 15.76306731
ECCENTRICITY   = .0001596
INCLINATION    = 42.9995
RA_OF_ASC_NODE = 238.0942
ARG_OF_PERICENTER = 278.4923
MEAN_ANOMALY   = 258.1588

EPHEMERIS_TYPE = 0
CLASSIFICATION_TYPE = U
NORAD_CAT_ID   = 67636
ELEMENT_SET_NO = 999
REV_AT_EPOCH   = 484
BSTAR          = .52702E-3
MEAN_MOTION_DOT = .85979E-3
MEAN_MOTION_DDOT = 0

CCSDS_OMM_VERS = 2.0
CREATION_DATE  = 
ORIGINATOR     = 

OBJECT_NAME    = STARLINK-36610
OBJECT_ID      = 2026-020W
CENTER_NAME    = EARTH
REF_FRAME      = TEME
TIME_SYSTEM    = UTC
MEAN_ELEMENT_THEORY = SGP/SGP4

EPOCH          = 2026-02-21T13:41:51.445248
MEAN_MOTION    = 15.76397548
ECCENTRICITY   = .000189
INCLINATION    = 42.9977
RA_OF_ASC_NODE = 239.9981
ARG_OF_PERICENTER = 278.2858
MEAN_ANOMALY   = 81.7797

EPHEMERIS_TYPE = 0
CLASSIFICATION_TYPE = U
NORAD_CAT_ID   = 67637
ELEMENT_SET_NO = 999
REV_AT_EPOCH   = 354
BSTAR          = .25169E-2
MEAN_MOTION_DOT = .431542E-2
MEAN_MOTION_DDOT = 0

CCSDS_OMM_VERS = 2.0
CREATION_DATE  = 
ORIGINATOR     = 

OBJECT_NAME    = STARLINK-36599
OBJECT_ID      = 2026-020X
CENTER_NAME    = EARTH
REF_FRAME      = TEME
TIME_SYSTEM    = UTC
MEAN_ELEMENT_THEORY = SGP/SGP4

EPOCH          = 2026-02-21T14:16:53.043168
MEAN_MOTION    = 15.82028119
ECCENTRICITY   = .0003095
INCLINATION    = 42.9983
RA_OF_ASC_NODE = 239.2951
ARG_OF_PERICENTER = 287.9163
MEAN_ANOMALY   = 72.1371

EPHEMERIS_TYPE = 0
CLASSIFICATION_TYPE = U
NORAD_CAT_ID   = 67638
ELEMENT_SET_NO = 999
REV_AT_EPOCH   = 355
BSTAR          = .17085E-2
MEAN_MOTION_DOT = .375504E-2
MEAN_MOTION_DDOT = 0

CCSDS_OMM_VERS = 2.0
CREATION_DATE  = 
ORIGINATOR     = 

OBJECT_NAME    = STARLINK-36595
OBJECT_ID      = 2026-020Y
CENTER_NAME    = EARTH
REF_FRAME      = TEME
TIME_SYSTEM    = UTC
MEAN_ELEMENT_THEORY = SGP/SGP4

EPOCH          = 2026-02-21T20:00:01.999008
MEAN_MOTION    = 15.76334347
ECCENTRICITY   = .0001584
INCLINATION    = 42.9989
RA_OF_ASC_NODE = 237.9997
ARG_OF_PERICENTER = 261.1565
MEAN_ANOMALY   = 312.8216

EPHEMERIS_TYPE = 0
CLASSIFICATION_TYPE = U
NORAD_CAT_ID   = 67639
ELEMENT_SET_NO = 999
REV_AT_EPOCH   = 484
BSTAR          = -.87482E-4
MEAN_MOTION_DOT = -.14688E-3
MEAN_MOTION_DDOT = 0

CCSDS_OMM_VERS = 2.0
CREATION_DATE  = 
ORIGINATOR     = 

OBJECT_NAME    = STARLINK-36570
OBJECT_ID      = 2026-020Z
CENTER_NAME    = EARTH
REF_FRAME      = TEME
TIME_SYSTEM    = UTC
MEAN_ELEMENT_THEORY = SGP/SGP4

EPOCH          = 2026-02-21T13:32:24.032256
MEAN_MOTION    = 15.76409245
ECCENTRICITY   = .0002716
INCLINATION    = 42.9990
RA_OF_ASC_NODE = 239.9432
ARG_OF_PERICENTER = 317.3520
MEAN_ANOMALY   = 42.7139

EPHEMERIS_TYPE = 0
CLASSIFICATION_TYPE = U
NORAD_CAT_ID   = 67640
ELEMENT_SET_NO = 999
REV_AT_EPOCH   = 354
BSTAR          = .15635E-2
MEAN_MOTION_DOT = .262674E-2
MEAN_MOTION_DDOT = 0

CCSDS_OMM_VERS = 2.0
CREATION_DATE  = 
ORIGINATOR     = 

OBJECT_NAME    = STARLINK-36514
OBJECT_ID      = 2026-020AA
CENTER_NAME    = EARTH
REF_FRAME      = TEME
TIME_SYSTEM    = UTC
MEAN_ELEMENT_THEORY = SGP/SGP4

EPOCH          = 2026-02-21T12:41:35.669184
MEAN_MOTION    = 15.81453551
ECCENTRICITY   = .00035609
INCLINATION    = 42.9993
RA_OF_ASC_NODE = 239.6571
ARG_OF_PERICENTER = 312.1344
MEAN_ANOMALY   = 47.9224

EPHEMERIS_TYPE = 0
CLASSIFICATION_TYPE = U
NORAD_CAT_ID   = 67641
ELEMENT_SET_NO = 999
REV_AT_EPOCH   = 354
BSTAR          = .15605833E-2
MEAN_MOTION_DOT = .332227E-2
MEAN_MOTION_DDOT = 0

CCSDS_OMM_VERS = 2.0
CREATION_DATE  = 
ORIGINATOR     = 

OBJECT_NAME    = STARLINK-36556
OBJECT_ID      = 2026-020AB
CENTER_NAME    = EARTH
REF_FRAME      = TEME
TIME_SYSTEM    = UTC
MEAN_ELEMENT_THEORY = SGP/SGP4

EPOCH          = 2026-02-21T13:16:37.612704
MEAN_MOTION    = 15.76642330
ECCENTRICITY   = .0002323
INCLINATION    = 42.9983
RA_OF_ASC_NODE = 239.8534
ARG_OF_PERICENTER = 232.1943
MEAN_ANOMALY   = 127.8717

EPHEMERIS_TYPE = 0
CLASSIFICATION_TYPE = U
NORAD_CAT_ID   = 67642
ELEMENT_SET_NO = 999
REV_AT_EPOCH   = 354
BSTAR          = .19064E-2
MEAN_MOTION_DOT = .326162E-2
MEAN_MOTION_DDOT = 0

CCSDS_OMM_VERS = 2.0
CREATION_DATE  = 
ORIGINATOR     = 

OBJECT_NAME    = STARLINK-36533
OBJECT_ID      = 2026-020AC
CENTER_NAME    = EARTH
REF_FRAME      = TEME
TIME_SYSTEM    = UTC
MEAN_ELEMENT_THEORY = SGP/SGP4

EPOCH          = 2026-02-21T13:35:32.986464
MEAN_MOTION    = 15.76452323
ECCENTRICITY   = .00017
INCLINATION    = 42.9981
RA_OF_ASC_NODE = 239.9605
ARG_OF_PERICENTER = 306.9850
MEAN_ANOMALY   = 53.0864

EPHEMERIS_TYPE = 0
CLASSIFICATION_TYPE = U
NORAD_CAT_ID   = 67643
ELEMENT_SET_NO = 999
REV_AT_EPOCH   = 354
BSTAR          = .25453E-3
MEAN_MOTION_DOT = .41321E-3
MEAN_MOTION_DDOT = 0

CCSDS_OMM_VERS = 2.0
CREATION_DATE  = 
ORIGINATOR     = 

OBJECT_NAME    = STARLINK-36623
OBJECT_ID      = 2026-020AD
CENTER_NAME    = EARTH
REF_FRAME      = TEME
TIME_SYSTEM    = UTC
MEAN_ELEMENT_THEORY = SGP/SGP4

EPOCH          = 2026-02-19T21:53:54.284640
MEAN_MOTION    = 15.76412304
ECCENTRICITY   = .0001929
INCLINATION    = 42.9982
RA_OF_ASC_NODE = 249.9186
ARG_OF_PERICENTER = 259.3230
MEAN_ANOMALY   = 100.7423

EPHEMERIS_TYPE = 0
CLASSIFICATION_TYPE = U
NORAD_CAT_ID   = 67644
ELEMENT_SET_NO = 999
REV_AT_EPOCH   = 328
BSTAR          = .91433E-3
MEAN_MOTION_DOT = .151401E-2
MEAN_MOTION_DDOT = 0

CCSDS_OMM_VERS = 2.0
CREATION_DATE  = 
ORIGINATOR     = 

OBJECT_NAME    = STARLINK-36619
OBJECT_ID      = 2026-020AE
CENTER_NAME    = EARTH
REF_FRAME      = TEME
TIME_SYSTEM    = UTC
MEAN_ELEMENT_THEORY = SGP/SGP4

EPOCH          = 2026-02-21T13:22:56.389440
MEAN_MOTION    = 15.76381886
ECCENTRICITY   = .0001742
INCLINATION    = 42.9976
RA_OF_ASC_NODE = 239.8894
ARG_OF_PERICENTER = 273.1990
MEAN_ANOMALY   = 86.8680

EPHEMERIS_TYPE = 0
CLASSIFICATION_TYPE = U
NORAD_CAT_ID   = 67645
ELEMENT_SET_NO = 999
REV_AT_EPOCH   = 354
BSTAR          = .15451E-2
MEAN_MOTION_DOT = .259145E-2
MEAN_MOTION_DDOT = 0

CCSDS_OMM_VERS = 2.0
CREATION_DATE  = 
ORIGINATOR     = 

OBJECT_NAME    = ALSAT-3B
OBJECT_ID      = 2026-021A
CENTER_NAME    = EARTH
REF_FRAME      = TEME
TIME_SYSTEM    = UTC
MEAN_ELEMENT_THEORY = SGP/SGP4

EPOCH          = 2026-02-21T19:40:25.492800
MEAN_MOTION    = 15.23688597
ECCENTRICITY   = .0012614
INCLINATION    = 97.4694
RA_OF_ASC_NODE = 127.2253
ARG_OF_PERICENTER = 184.7974
MEAN_ANOMALY   = 175.3144

EPHEMERIS_TYPE = 0
CLASSIFICATION_TYPE = U
NORAD_CAT_ID   = 67646
ELEMENT_SET_NO = 999
REV_AT_EPOCH   = 330
BSTAR          = .26825E-3
MEAN_MOTION_DOT = .6379E-4
MEAN_MOTION_DDOT = 0

CCSDS_OMM_VERS = 2.0
CREATION_DATE  = 
ORIGINATOR     = 

OBJECT_NAME    = CZ-2C R/B
OBJECT_ID      = 2026-021B
CENTER_NAME    = EARTH
REF_FRAME      = TEME
TIME_SYSTEM    = UTC
MEAN_ELEMENT_THEORY = SGP/SGP4

EPOCH          = 2026-02-21T19:45:13.412160
MEAN_MOTION    = 15.23632317
ECCENTRICITY   = .0153006
INCLINATION    = 97.6533
RA_OF_ASC_NODE = 127.9738
ARG_OF_PERICENTER = 66.4429
MEAN_ANOMALY   = 295.2795

EPHEMERIS_TYPE = 0
CLASSIFICATION_TYPE = U
NORAD_CAT_ID   = 67647
ELEMENT_SET_NO = 999
REV_AT_EPOCH   = 328
BSTAR          = .34541E-3
MEAN_MOTION_DOT = .11453E-3
MEAN_MOTION_DDOT = 0

