STARLINK-36624          
1 67636U 26020V   26052.83335647  .00085979  00000+0  52702-3 0  9998
2 67636  42.9995 238.0942 0001596 278.4923 258.1588 15.76306731  4844
STARLINK-36610          
1 67637U 26020W   26052.57073432  .00431542  00000+0  25169-2 0  9998
2 67637  42.9977 239.9981 0001890 278.2858  81.7797 15.76397548  3544
STARLINK-36599          
1 67638U 26020X   26052.59505837  .00375504  00000+0  17085-2 0  9993
2 67638  42.9983 239.2951 0003095 287.9163  72.1371 15.82028119  3552
STARLINK-36595          
1 67639U 26020Y   26052.83335647 -.00014688  00000+0 -87482-4 0  9996
2 67639  42.9989 237.9997 0001584 261.1565 312.8216 15.76334347  4846
STARLINK-36570          
1 67640U 26020Z   26052.56416704  .00262674  00000+0  15635-2 0  9999
2 67640  42.9990 239.9432 0002716 317.3520  42.7139 15.76409245  3548
STARLINK-36514          
1 67641U 26020AA  26052.52888506  .00332227  00000+0  15606-2 0  9999
2 67641  42.9993 239.6571 0003560 312.1344  47.9224 15.81453551  3545
STARLINK-36556          
1 67642U 26020AB  26052.55321311  .00326162  00000+0  19064-2 0  9992
2 67642  42.9983 239.8534 0002323 232.1943 127.8717 15.76642330  3542
STARLINK-36533          
1 67643U 26020AC  26052.56635401  .00041321  00000+0  25453-3 0  9993
2 67643  42.9981 239.9605 0001700 306.9850  53.0864 15.76452323  3540
STARLINK-36623          
1 67644U 26020AD  26050.91243385  .00151401  00000+0  91433-3 0  9999
2 67644  42.9982 249.9186 0001929 259.3230 100.7423 15.76412304  3280
STARLINK-36619          
1 67645U 26020AE  26052.55759710  .00259145  00000+0  15451-2 0  9995
2 67645  42.9976 239.8894 0001742 273.1990  86.8680 15.76381886  3546
ALSAT-3B                
1 67646U 26021A   26052.81973950  .00006379  00000+0  26825-3 0  9997
2 67646  97.4694 127.2253 0012614 184.7974 175.3144 15.23688597  3301
CZ-2C R/B               
1 67647U 26021B   26052.82307190  .00011453  00000+0  34541-3 0  9999
2 67647  97.6533 127.9738 0153006  66.4429 295.2795 15.23632317  3283
